COSMOS 2413 (712)       
1 28509U 04053B   15353.37240841  .00000104  00000-0  00000+0 0  9996
2 28509  63.1315 196.5371 0005569 159.4094 218.8570  2.13101726 85450
COSMOS 2419 (714)       
1 28915U 05050A   15352.45689259 -.00000017  00000-0  00000+0 0  9997
2 28915  65.2429  84.3028 0014248 351.8892  42.5736  2.13113120 77684
COSMOS 2425 (716)       
1 29670U 06062A   15353.08893361 -.00000021  00000-0  10000-3 0  9991
2 29670  65.7092 323.2400 0022514 338.7744 243.2571  2.13105072 69896
COSMOS 2426 (717)       
1 29671U 06062B   15353.46718147 -.00000024  00000-0  10000-3 0  9995
2 29671  65.7262 323.3048 0016093 174.5357 199.8656  2.13103157 69911
COSMOS 2424 (715)       
1 29672U 06062C   15352.43965060 -.00000017  00000-0  10000-3 0  9992
2 29672  65.7111 323.2713 0015641 173.8861 309.0870  2.13102269 69885
COSMOS 2433 (720)       
1 32275U 07052A   15353.42551311 -.00000029  00000-0  10000-3 0  9998
2 32275  65.2583  84.0376 0002756 233.1745  78.7980  2.13105061 63415
COSMOS 2432 (719)       
1 32276U 07052B   15353.48771907 -.00000029  00000-0  10000-3 0  9990
2 32276  65.2705  84.0984 0010459 336.1082 337.8406  2.13104290 63419
COSMOS 2434 (721)       
1 32393U 07065A   15353.42821418 -.00000025  00000-0  00000+0 0  9992
2 32393  65.3289 322.6370 0001387 140.1499  67.4479  2.13102907 62128
COSMOS 2436 (723)       
1 32395U 07065C   15353.35926222 -.00000025  00000-0  10000-3 0  9990
2 32395  65.3420 322.6789 0017798 344.9658 261.7165  2.13102950 62056
COSMOS 2443 (725)       
1 33379U 08046B   15352.61580113 -.00000020  00000-0  10000-3 0  9991
2 33379  65.1865  83.4993 0019291 184.1539 133.9596  2.13101561 56262
COSMOS 2456 (730)       
1 36111U 09070A   15352.64458561  .00000092  00000-0  00000+0 0  9993
2 36111  64.1863 202.2858 0003751 343.6304 151.4308  2.13103076 46777
COSMOS 2457 (733)       
1 36112U 09070B   15352.66569069  .00000092  00000-0  00000+0 0  9992
2 36112  64.1683 202.2167 0007188 148.7441 133.6337  2.13101745 46770
COSMOS 2458 (734)       
1 36113U 09070C   15353.07970980  .00000095  00000-0  10000-3 0  9995
2 36113  64.1739 202.2064 0002758  54.8036 232.4053  2.13102026 46781
COSMOS 2459 (731)       
1 36400U 10007A   15352.71190946 -.00000022  00000-0  10000-3 0  9993
2 36400  65.1652  83.2353 0027061 353.3761 358.1185  2.13102379 45129
COSMOS 2461 (735)       
1 36401U 10007B   15352.45875108 -.00000019  00000-0  10000-3 0  9991
2 36401  65.1582  83.2269 0006067  86.3520 341.4829  2.13102338 45122
COSMOS 2460 (732)       
1 36402U 10007C   15352.67021521 -.00000021  00000-0  10000-3 0  9991
2 36402  65.1483  83.1991 0001417 169.4012 102.8068  2.13102045 45126
COSMOS 2466 (738)       
1 37137U 10041A   15353.39019047 -.00000026  00000-0  10000-3 0  9990
2 37137  64.9126 322.8331 0019180 160.7422 241.3150  2.13102454 41221
COSMOS 2465 (737)       
1 37138U 10041B   15352.46868789 -.00000019  00000-0  00000+0 0  9990
2 37138  64.9299 322.9345 0034048 172.7319  64.8759  2.13102857 41193
COSMOS 2464 (736)       
1 37139U 10041C   15352.69808726 -.00000021  00000-0  00000+0 0  9994
2 37139  64.9321 322.9187 0021613   6.7059 181.4653  2.13102968 41209
COSMOS 2471 (701K)      
1 37372U 11009A   15352.68249806 -.00000022  00000-0  00000+0 0  9996
2 37372  65.1461  83.1486 0008329 228.0041 185.5971  2.13103029 37407
COSMOS 2474 (742)       
1 37829U 11055A   15353.16900667  .00000096  00000-0  00000+0 0  9997
2 37829  64.5102 202.6056 0006008 251.1179 148.4756  2.13102003 32787
COSMOS 2476 (744)       
1 37867U 11064A   15353.27857344  .00000096  00000-0  00000+0 0  9994
2 37867  64.4904 202.6874 0014774 246.6373 282.7636  2.13102113 32130
COSMOS 2477 (745)       
1 37868U 11064B   15353.30870387  .00000096  00000-0  00000+0 0  9991
2 37868  64.4989 202.7250 0012823 247.8730 124.0591  2.13102029 32095
COSMOS 2475 (743)       
1 37869U 11064C   15353.08672421  .00000095  00000-0  00000+0 0  9995
2 37869  64.5065 202.7186 0018612 278.9108 238.7643  2.13102299 32096
COSMOS 2478 (746)       
1 37938U 11071A   15352.49959944 -.00000019  00000-0  00000+0 0  9999
2 37938  65.1724  83.3707 0014181 237.7581 157.8264  2.13088489 31698
COSMOS 2485 (747)       
1 39155U 13019A   15353.16558433  .00000096  00000-0  00000+0 0  9993
2 39155  64.6598 202.6020 0015095 240.2165 247.7071  2.13102207 20609
COSMOS 2492 (754)       
1 39620U 14012A   15353.43206947 -.00000030  00000-0  10000-3 0  9998
2 39620  65.0369  83.1875 0014350 330.5928  34.3845  2.13103500 13563
COSMOS 2500 (755)       
1 40001U 14032A   15353.01074692 -.00000025  00000-0  00000+0 0  9998
2 40001  64.9778  83.2395 0007343 199.5236  66.3042  2.13103015 11762
COSMOS 2501 (702K)      
1 40315U 14075A   15353.43713198 -.00000026  00000-0  00000+0 0  9991
2 40315  64.7000 324.4066 0018834 240.2780 154.8400  2.13101612  8180
